MEAN_MOTION;ECCENTRICITY;INCLINATION;RA_OF_ASC_NODE;ARG_OF_PERICENTER;MEAN_ANOMALY;BSTAR;MEAN_MOTION_DOT;MEAN_MOTION_DDOT;TYPE
11.4217184;0.000196;51.9786;154.2432;147.3939;6.4542;2.8466E-5;-7.1E-7;0;Globalstar
11.42171836;0.000194;51.9785;151.7141;149.2015;357.5793;2.151E-5;-7.1E-7;0;Globalstar
11.4217185;0.0001921;51.9784;149.4107;150.8591;323.869;5.8888E-5;-7.0E-7;0;Globalstar
11.4217185;0.0001903;51.9784;147.2862;152.4205;345.289;2.5645E-5;-7.1E-7;0;Globalstar
11.42171855;0.0001901;51.9784;147.0651;152.5926;2.1228;4.4969E-5;-7.0E-7;0;Globalstar
11.42171869;0.0001882;51.9783;144.9963;154.2878;288.0444;7.2333E-5;-6.9E-7;0;Globalstar
11.42171868;0.0001856;51.9782;142.4278;156.0762;346.3347;5.3526E-5;-7.0E-7;0;Globalstar
11.42171858;0.0001851;51.9782;142.2046;156.324;6.5519;3.3322E-5;-7.1E-7;0;Globalstar
11.42171845;0.0001838;51.9781;140.3632;157.5927;265.3509;-8.8362E-6;-7.2E-7;0;Globalstar
11.4217184;0.0001817;51.9781;138.493;158.9615;213.156;-6.6125E-6;-7.2E-7;0;Globalstar
11.42171834;0.0001812;51.9781;137.5942;159.439;305.3135;-1.7303E-5;-7.3E-7;0;Globalstar
11.42171834;0.0001782;51.9779;134.462;161.7961;244.0584;1.6341E-5;-7.1E-7;0;Globalstar
11.42171825;0.0001766;51.9778;132.5009;163.1928;346.7692;2.3713E-5;-7.1E-7;0;Globalstar
11.4217184;0.0001742;51.9778;130.1802;164.8317;342.4821;7.6439E-5;-6.9E-7;0;Globalstar
11.42171848;0.0001736;51.9777;129.2097;165.6744;196.3269;0.00010936;-6.7E-7;0;Globalstar
11.42171837;0.000173;51.9777;128.096;166.5145;294.666;7.4562E-5;-6.9E-7;0;Globalstar
11.42171844;0.0001715;51.9777;126.6695;167.6461;205.8782;8.6649E-5;-6.8E-7;0;Globalstar
11.42171857;0.0001701;51.9777;125.5563;168.4432;303.3058;0.00010818;-6.8E-7;0;Globalstar
11.42171879;0.0001686;51.9774;123.4507;170.0715;292.5505;-0.00022707;-8.1E-7;0;Globalstar
11.42171871;0.0001681;51.9774;123.238;170.2421;295.1009;-0.00025542;-8.2E-7;0;Globalstar
11.42171868;0.0001661;51.9773;120.9183;172.0507;288.7056;-0.00014891;-7.8E-7;0;Globalstar
11.42171897;0.0001635;51.9773;118.1442;174.2081;336.6105;0.0001324;-6.7E-7;0;Globalstar
11.42171896;0.0001618;51.9773;115.8251;175.9539;329.3788;0.00026882;-6.1E-7;0;Globalstar
11.4217191;0.0001609;51.9773;114.4123;176.9905;217.3225;0.00032708;-5.9E-7;0;Globalstar
11.42171907;0.0001601;51.9773;113.7396;177.4832;283.8529;0.00036478;-5.7E-7;0;Globalstar
11.4217197;0.0001578;51.9774;111.1826;179.3477;322.0804;0.00053943;-5.0E-7;0;Globalstar
11.4217197;0.0001578;51.9774;111.1826;179.3477;322.0804;0.00053943;-5.0E-7;0;Globalstar
11.42172009;0.0001551;51.9775;108.8804;180.9817;286.0999;0.0005582;-4.9E-7;0;Globalstar
11.42172031;0.0001537;51.9775;107.4462;182.1141;210.5591;0.00048667;-5.2E-7;0;Globalstar
11.42172041;0.0001526;51.9775;106.3386;182.9213;298.407;0.0004346;-5.4E-7;0;Globalstar
11.42172077;0.0001515;51.9775;104.9062;184.2192;219.4075;0.0003535;-5.8E-7;0;Globalstar
11.42172096;0.000151;51.9775;103.9878;184.9067;344.7364;0.000343;-5.8E-7;0;Globalstar
11.42172082;0.0001499;51.9776;102.3532;186.0721;250.8717;0.00011326;-6.7E-7;0;Globalstar
11.42172097;0.0001501;51.9776;101.2471;186.9482;336.0531;4.5713E-5;-7.0E-7;0;Globalstar
11.42172107;0.0001492;51.9776;100.268;187.6847;204.8093;-8.9651E-6;-7.2E-7;0;Globalstar
11.42172072;0.0001472;51.9777;97.487;189.7832;264.6581;-0.00029901;-8.4E-7;0;Globalstar
11.42172074;0.0001455;51.9778;96.6078;190.4156;323.2495;-0.00030733;-8.4E-7;0;Globalstar
11.42172065;0.0001435;51.9779;94.4962;191.9842;322.1932;-0.00030637;-8.4E-7;0;Globalstar
11.42172053;0.0001401;51.978;91.9503;193.7176;341.634;-0.00024431;-8.2E-7;0;Globalstar
11.42172031;0.0001342;51.9783;88.4568;196.0977;176.0922;-7.7417E-5;-7.5E-7;0;Globalstar
11.42172032;0.0001341;51.9784;87.7803;196.5201;249.1039;-4.9135E-5;-7.4E-7;0;Globalstar
11.42172049;0.0001331;51.9784;87.1111;196.778;310.0777;4.8472E-5;-7.0E-7;0;Globalstar
11.42172068;0.0001307;51.9787;84.7886;198.4226;308.6742;0.00018775;-6.4E-7;0;Globalstar
11.42172096;0.0001306;51.9788;83.8116;199.4221;173.5848;0.00027781;-6.1E-7;0;Globalstar
11.42172082;0.0001297;51.9789;82.4848;200.4713;275.1416;0.000214;-6.3E-7;0;Globalstar
11.42172095;0.0001287;51.9792;80.6012;202.0941;245.3479;0.00017458;-6.5E-7;0;Globalstar
11.42172104;0.0001264;51.9794;78.7108;203.5483;227.4314;0.00011099;-6.7E-7;0;Globalstar
11.42172106;0.0001258;51.9795;78.0598;203.916;257.3031;0.00011849;-6.7E-7;0;Globalstar
11.42172089;0.0001246;51.9796;76.4066;205.2135;195.2208;-6.1581E-5;-7.4E-7;0;Globalstar
11.42172079;0.0001223;51.9799;73.8726;206.9722;194.6087;-0.00023967;-8.2E-7;0;Globalstar
11.42172118;0.0001219;51.98;72.7537;207.753;301.8006;-0.00016295;-7.9E-7;0;Globalstar
11.4217212;0.0001199;51.9802;70.433;209.4785;297.5113;-0.00022589;-8.1E-7;0;Globalstar
11.42172114;0.0001175;51.9804;66.9162;212.1056;171.959;-0.00024981;-8.2E-7;0;Globalstar
11.42172102;0.0001174;51.9805;66.6725;212.2393;227.5333;-0.00031515;-8.5E-7;0;Globalstar
11.42172088;0.0001159;51.9806;64.3579;214.0909;212.6211;-0.00025749;-8.2E-7;0;Globalstar
11.42172087;0.0001152;51.9807;63.7035;214.4961;248.2996;-0.00019972;-8.0E-7;0;Globalstar
11.42172085;0.0001149;51.9808;63.2767;214.9767;255.6148;-0.00020337;-8.0E-7;0;Globalstar
11.42172062;0.0001133;51.981;60.9494;216.771;262.5534;-0.00015152;-7.8E-7;0;Globalstar
11.4217205;0.000112;51.9812;59.4972;217.779;218.0931;-0.00013772;-7.8E-7;0;Globalstar
11.42172052;0.000111;51.9813;58.3981;218.6797;291.5054;-4.336E-5;-7.4E-7;0;Globalstar
11.42172071;0.0001092;51.9815;56.0788;220.608;284.8481;8.8493E-5;-6.8E-7;0;Globalstar
11.42172072;0.000108;51.9817;54.635;221.7304;226.0553;6.7602E-5;-6.9E-7;0;Globalstar
11.42172077;0.0001076;51.9817;53.9934;221.9692;240.0157;0.00013028;-6.7E-7;0;Globalstar
11.42172087;0.0001054;51.9819;51.6754;223.6516;231.5266;0.00010827;-6.8E-7;0;Globalstar
11.42172096;0.000104;51.9821;49.7865;225.0663;211.4611;4.8725E-5;-7.0E-7;0;Globalstar
11.4217212;0.0001025;51.9822;48.9022;225.8692;278.9763;0.00011286;-6.7E-7;0;Globalstar
11.42172127;0.0001019;51.9822;47.4888;226.9433;168.3729;2.6932E-5;-7.1E-7;0;Globalstar
11.42172114;0.0001002;51.9823;44.9296;228.8869;211.0317;-0.00010694;-7.6E-7;0;Globalstar
11.42172128;9.99E-5;51.9824;44.4718;229.3659;271.3507;-4.8521E-5;-7.4E-7;0;Globalstar
11.42172123;9.84E-5;51.9824;42.6092;230.8606;206.3572;-0.00012852;-7.7E-7;0;Globalstar
11.4217213;9.76E-5;51.9825;41.725;231.731;273.5535;-8.4153E-5;-7.5E-7;0;Globalstar
11.42172134;9.7E-5;51.9825;40.2842;232.8059;209.7017;-9.7507E-5;-7.6E-7;0;Globalstar
11.42172137;9.68E-5;51.9825;39.4027;233.3918;272.3829;-4.4894E-5;-7.4E-7;0;Globalstar
11.42172133;9.58E-5;51.9826;37.7524;234.6944;205.4397;-7.2559E-5;-7.5E-7;0;Globalstar
11.42172133;9.57E-5;51.9826;37.5459;234.8861;197.5398;-5.5389E-5;-7.4E-7;0;Globalstar
11.42172135;9.51E-5;51.9826;37.0716;235.3013;285.999;-1.9354E-5;-7.3E-7;0;Globalstar
11.42172153;9.41E-5;51.9826;35.4321;236.649;200.7396;4.7326E-5;-7.0E-7;0;Globalstar
11.42172161;9.31E-5;51.9827;34.7448;237.2072;292.2689;0.00013067;-6.7E-7;0;Globalstar
11.42172162;9.29E-5;51.9827;34.5476;237.3791;268.484;0.00012582;-6.7E-7;0;Globalstar
11.42172182;9.2E-5;51.9827;32.8961;238.799;203.5655;0.0002157;-6.3E-7;0;Globalstar
11.42172198;9.17E-5;51.9827;32.2113;239.4365;290.858;0.00029023;-6.0E-7;0;Globalstar
11.42172241;9.14E-5;51.9828;30.5752;240.6685;199.7239;0.00040163;-5.6E-7;0;Globalstar
11.42172274;9.01E-5;51.9828;28.0387;242.8744;203.3611;0.00049251;-5.2E-7;0;Globalstar
11.42172284;9.04E-5;51.9828;27.5767;243.4943;270.7901;0.00051058;-5.1E-7;0;Globalstar
11.42172308;8.93E-5;51.9829;25.7187;245.2304;197.823;0.00049892;-5.2E-7;0;Globalstar
11.42172322;8.88E-5;51.9829;25.0478;245.3698;261.8356;0.0005127;-5.1E-7;0;Globalstar
11.42172347;8.76E-5;51.9829;22.7443;247.5232;228.246;0.00045553;-5.3E-7;0;Globalstar
11.42172363;8.62E-5;51.9829;20.3911;249.6792;279.4688;0.00037094;-5.7E-7;0;Globalstar
11.42172371;8.56E-5;51.9828;18.5419;251.3587;191.4108;0.00026476;-6.1E-7;0;Globalstar
11.42172403;8.48E-5;51.9828;17.8713;251.7078;254.7575;0.00034603;-5.8E-7;0;Globalstar
11.42172418;8.42E-5;51.9827;16.0005;253.1665;203.6816;0.00028226;-6.0E-7;0;Globalstar
11.42172429;8.36E-5;51.9827;15.3321;253.6452;263.1607;0.00026963;-6.1E-7;0;Globalstar
11.42172464;8.3E-5;51.9827;13.6646;255.2552;225.2313;0.00035393;-5.8E-7;0;Globalstar
11.42172487;8.19E-5;51.9826;11.366;257.2399;183.2174;0.00037084;-5.7E-7;0;Globalstar
11.42172521;8.13E-5;51.9825;9.0589;259.1094;155.7175;0.00040394;-5.6E-7;0;Globalstar
11.42172533;8.08E-5;51.9824;8.3867;259.7953;221.3906;0.00046047;-5.3E-7;0;Globalstar
11.42172558;8.03E-5;51.9824;6.7464;261.0779;137.3092;0.00049361;-5.2E-7;0;Globalstar
11.4217257;8.0E-5;51.9823;5.8367;262.2228;247.4993;0.00054822;-5.0E-7;0;Globalstar
11.42172622;7.88E-5;51.9822;1.8654;264.8066;177.3698;0.00058303;-4.8E-7;0;Globalstar
11.42172632;7.87E-5;51.9822;1.6451;264.7383;193.0335;0.00062883;-4.6E-7;0;Globalstar
11.42172669;7.79E-5;51.9821;359.545;266.4198;172.6748;0.00060352;-4.7E-7;0;Globalstar
11.42172671;7.77E-5;51.9821;358.6588;267.5292;242.7718;0.00059067;-4.8E-7;0;Globalstar
11.42172682;7.7E-5;51.982;356.7862;268.9276;194.7848;0.00051165;-5.1E-7;0;Globalstar
11.42172693;7.67E-5;51.982;356.3394;269.1867;236.5712;0.0005075;-5.1E-7;0;Globalstar
11.421727;7.63E-5;51.9819;354.6881;270.1081;171.5853;0.00036739;-5.7E-7;0;Globalstar
11.421727;7.63E-5;51.9819;354.4669;269.9475;188.9942;0.00037627;-5.7E-7;0;Globalstar
11.42172722;7.58E-5;51.9818;352.1624;271.2184;157.6857;0.00028508;-6.0E-7;0;Globalstar
11.42172721;7.55E-5;51.9817;351.4811;271.9545;238.8157;0.00023776;-6.2E-7;0;Globalstar
11.42172721;7.5E-5;51.9817;349.6182;273.5993;173.9389;0.00017999;-6.5E-7;0;Globalstar
11.4217273;7.49E-5;51.9816;348.7291;274.1874;249.564;0.00014766;-6.6E-7;0;Globalstar
11.42172737;7.47E-5;51.9816;347.2894;275.0164;183.9107;0.00016644;-6.5E-7;0;Globalstar
11.42172723;7.46E-5;51.9815;344.952;277.9002;206.7055;0.00012873;-6.7E-7;0;Globalstar
11.42172713;7.44E-5;51.9814;342.4299;280.3962;185.1095;0.00014915;-6.6E-7;0;Globalstar
